{"spkid": "50309880", "covariance": {"elements": [{"label": "e", "name": "e", "sigma": 3.22886708017121e-07, "value": ".3213897283406431", "title": "eccentricity", "units": null}, {"label": "q", "name": "q", "sigma": 3.10943140794825e-07, "units": "au", "value": ".5237504288868889", "title": "perihelion distance"}, {"label": "tp", "units": "TDB", "title": "time of perihelion passage", "value": "2459818.121551365565", "sigma": 0.000314011271397247, "name": "tp"}, {"sigma": 1.70383050840523e-05, "name": "om", "title": "longitude of the ascending node", "value": "100.5748579805081", "units": "deg", "label": "node"}, {"label": "peri", "sigma": 0.000108443582792154, "name": "w", "title": "argument of perihelion", "value": "190.0984336257325", "units": "deg"}, {"label": "i", "name": "i", "sigma": 3.21218455098137e-05, "units": "deg", "title": "inclination", "value": "7.734073674252348"}], "data": [["1.042558262141338E-13", "-9.921836520146939E-14", "6.94562800603618E-11", "2.597666295986955E-12", "8.001651544627394E-12", "6.601581694927498E-12", "-7.481608287761208E-20"], ["-9.921836520146939E-14", "9.668563680735055E-14", "-7.536403028897843E-11", "-2.528759744847281E-12", "-9.03793696094322E-12", "-5.320456702383654E-12", "8.029016366293522E-20"], ["6.94562800603618E-11", "-7.536403028897843E-11", "9.860307856451569E-8", "1.172297402056995E-9", "2.319219262399799E-8", "-8.586423314819735E-11", "-8.707398734900963E-17"], ["2.597666295986955E-12", "-2.528759744847281E-12", "1.172297402056995E-9", "2.903038401372439E-10", "-6.059242801112966E-10", "2.986307419630516E-10", "-2.100585386617936E-18"], ["8.001651544627394E-12", "-9.03793696094322E-12", "2.319219262399799E-8", "-6.059242801112966E-10", "1.176001064879873E-8", "-6.790279090300865E-10", "-1.144884645553769E-17"], ["6.601581694927498E-12", "-5.320456702383654E-12", "-8.586423314819735E-11", "2.986307419630516E-10", "-6.790279090300865E-10", "1.031812958956336E-9", "-8.82158720493171E-19"], ["-7.481608287761208E-20", "8.029016366293522E-20", "-8.707398734900963E-17", "-2.100585386617936E-18", "-1.144884645553769E-17", "-8.82158720493171E-19", "9.022280009860663E-26"]], "labels": ["e", "q", "tp", "node", "peri", "i", "A2"], "epoch": "2459744.5"}, "elements": [{"units": null, "title": "eccentricity", "value": ".3218717253810619", "name": "e", "sigma": "3.1912E-7", "label": "e"}, {"label": "a", "sigma": "1.7882E-7", "name": "a", "units": "au", "title": "semi-major axis", "value": ".7715717355345173"}, {"name": "q", "sigma": "3.4828E-7", "title": "perihelion distance", "value": ".5232246097627619", "units": "au", "label": "q"}, {"label": "i", "value": "7.713773944294272", "title": "inclination; angle with respect to x-y ecliptic plane", "units": "deg", "sigma": "3.2226E-5", "name": "i"}, {"sigma": "1.7141E-5", "name": "om", "value": "100.4200911542844", "title": "longitude of the ascending node", "units": "deg", "label": "node"}, {"title": "argument of perihelion", "value": "190.1390913643583", "units": "deg", "name": "w", "sigma": ".00010772", "label": "peri"}, {"label": "M", "name": "ma", "sigma": ".00023664", "units": "deg", "title": "mean anomaly", "value": "210.1932790736656"}, {"sigma": ".00018881", "name": "tp", "units": "TDB", "title": "time of perihelion passage", "value": "2461303.512917940301", "label": "tp"}, {"label": "period", "units": "d", "value": "247.5499779261865", "title": "sidereal orbital period", "name": "per", "sigma": "8.6057E-5"}, {"label": "n", "units": "deg/d", "title": "mean motion", "value": "1.454251796004375", "sigma": "5.0555E-7", "name": "n"}, {"label": "Q", "sigma": "2.3637E-7", "name": "ad", "title": "aphelion distance", "value": "1.019918861306273", "units": "au"}], "epoch": "2461200.5"}